{"type": "FeatureCollection", "features": [{"type": "Feature", "properties": {"norad_id": 25590, "name": "COSMOS 2361", "group": "musson", "lat": 20.076198872852085, "lon": -12.457376510620861, "alt_km": 996.007604460774, "timestamp": "2025-12-11T13:55:02.434807+00:00", "meta": {"OBJECT_NAME": "COSMOS 2361", "OBJECT_ID": "1998-076A", "EPOCH": "2025-12-11T01:53:57.122304", "MEAN_MOTION": 13.73217239, "ECCENTRICITY": 0.00300487, "INCLINATION": 82.9339, "RA_OF_ASC_NODE": 345.3147, "ARG_OF_PERICENTER": 270.4231, "MEAN_ANOMALY": 155.4616, "EPHEMERIS_TYPE": 0, "CLASSIFICATION_TYPE": "U", "NORAD_CAT_ID": 25590, "ELEMENT_SET_NO": 999, "REV_AT_EPOCH": 35088, "BSTAR": 8.6975318e-05, "MEAN_MOTION_DOT": 9.6e-07, "MEAN_MOTION_DDOT": 0}, "tle": {"line1": "1 25590U 98076A   25345.07913336  .00000096  00000+0  86975-4 0  9995", "line2": "2 25590  82.9339 345.3147 0030048 270.4231 155.4616 13.73217239350888"}}, "geometry": {"type": "Point", "coordinates": [-12.457376510620861, 20.076198872852085]}}, {"type": "Feature", "properties": {"norad_id": 26818, "name": "COSMOS 2378", "group": "musson", "lat": 82.76030185792402, "lon": 78.35104721828402, "alt_km": 989.0138012894313, "timestamp": "2025-12-11T13:55:02.434829+00:00", "meta": {"OBJECT_NAME": "COSMOS 2378", "OBJECT_ID": "2001-023A", "EPOCH": "2025-12-11T03:19:42.892032", "MEAN_MOTION": 13.74141811, "ECCENTRICITY": 0.00323143, "INCLINATION": 82.9273, "RA_OF_ASC_NODE": 0.9122, "ARG_OF_PERICENTER": 209.4154, "MEAN_ANOMALY": 218.0387, "EPHEMERIS_TYPE": 0, "CLASSIFICATION_TYPE": "U", "NORAD_CAT_ID": 26818, "ELEMENT_SET_NO": 999, "REV_AT_EPOCH": 22901, "BSTAR": 5.7443799e-05, "MEAN_MOTION_DOT": 6.9e-07, "MEAN_MOTION_DDOT": 0}, "tle": {"line1": "1 26818U 01023A   25345.13869088  .00000069  00000+0  57444-4 0  9995", "line2": "2 26818  82.9273   0.9122 0032314 209.4154 218.0387 13.74141811229014"}}, "geometry": {"type": "Point", "coordinates": [78.35104721828402, 82.76030185792402]}}, {"type": "Feature", "properties": {"norad_id": 27436, "name": "COSMOS 2389", "group": "musson", "lat": -67.8562788672052, "lon": -69.85943972500566, "alt_km": 1012.1272306252195, "timestamp": "2025-12-11T13:55:02.434842+00:00", "meta": {"OBJECT_NAME": "COSMOS 2389", "OBJECT_ID": "2002-026A", "EPOCH": "2025-12-11T07:48:09.511776", "MEAN_MOTION": 13.75154374, "ECCENTRICITY": 0.00476546, "INCLINATION": 82.9501, "RA_OF_ASC_NODE": 308.0319, "ARG_OF_PERICENTER": 64.5816, "MEAN_ANOMALY": 46.3218, "EPHEMERIS_TYPE": 0, "CLASSIFICATION_TYPE": "U", "NORAD_CAT_ID": 27436, "ELEMENT_SET_NO": 999, "REV_AT_EPOCH": 18129, "BSTAR": 9.0338393e-05, "MEAN_MOTION_DOT": 1.03e-06, "MEAN_MOTION_DDOT": 0}, "tle": {"line1": "1 27436U 02026A   25345.32511009  .00000103  00000+0  90338-4 0  9992", "line2": "2 27436  82.9501 308.0319 0047654  64.5816  46.3218 13.75154374181294"}}, "geometry": {"type": "Point", "coordinates": [-69.85943972500566, -67.8562788672052]}}, {"type": "Feature", "properties": {"norad_id": 27818, "name": "COSMOS 2398", "group": "musson", "lat": -74.33021920741731, "lon": 119.73561108970445, "alt_km": 1016.9751198995946, "timestamp": "2025-12-11T13:55:02.434853+00:00", "meta": {"OBJECT_NAME": "COSMOS 2398", "OBJECT_ID": "2003-023A", "EPOCH": "2025-12-11T06:12:35.381376", "MEAN_MOTION": 13.72385544, "ECCENTRICITY": 0.00325265, "INCLINATION": 82.9484, "RA_OF_ASC_NODE": 273.7896, "ARG_OF_PERICENTER": 115.7594, "MEAN_ANOMALY": 354.1881, "EPHEMERIS_TYPE": 0, "CLASSIFICATION_TYPE": "U", "NORAD_CAT_ID": 27818, "ELEMENT_SET_NO": 999, "REV_AT_EPOCH": 12796, "BSTAR": 9.7367873e-05, "MEAN_MOTION_DOT": 1.05e-06, "MEAN_MOTION_DDOT": 0}, "tle": {"line1": "1 27818U 03023A   25345.25874284  .00000105  00000+0  97368-4 0  9995", "line2": "2 27818  82.9484 273.7896 0032526 115.7594 354.1881 13.72385544127962"}}, "geometry": {"type": "Point", "coordinates": [119.73561108970445, -74.33021920741731]}}, {"type": "Feature", "properties": {"norad_id": 28380, "name": "COSMOS 2407", "group": "musson", "lat": 73.61578334145766, "lon": -121.39988449878909, "alt_km": 941.5819167924992, "timestamp": "2025-12-11T13:55:02.434864+00:00", "meta": {"OBJECT_NAME": "COSMOS 2407", "OBJECT_ID": "2004-028A", "EPOCH": "2025-12-11T03:38:19.095360", "MEAN_MOTION": 13.7631341, "ECCENTRICITY": 0.00403813, "INCLINATION": 82.9609, "RA_OF_ASC_NODE": 214.0685, "ARG_OF_PERICENTER": 59.155, "MEAN_ANOMALY": 55.0944, "EPHEMERIS_TYPE": 0, "CLASSIFICATION_TYPE": "U", "NORAD_CAT_ID": 28380, "ELEMENT_SET_NO": 999, "REV_AT_EPOCH": 7401, "BSTAR": 6.7057344e-05, "MEAN_MOTION_DOT": 8.1e-07, "MEAN_MOTION_DDOT": 0}, "tle": {"line1": "1 28380U 04028A   25345.15160990  .00000081  00000+0  67057-4 0  9992", "line2": "2 28380  82.9609 214.0685 0040381  59.1550  55.0944 13.76313410 74012"}}, "geometry": {"type": "Point", "coordinates": [-121.39988449878909, 73.61578334145766]}}, {"type": "Feature", "properties": {"norad_id": 28521, "name": "COSMOS 2414", "group": "musson", "lat": -68.47421992718888, "lon": 167.25066582312672, "alt_km": 968.4119450831795, "timestamp": "2025-12-11T13:55:02.434875+00:00", "meta": {"OBJECT_NAME": "COSMOS 2414", "OBJECT_ID": "2005-002A", "EPOCH": "2025-12-11T00:24:46.967328", "MEAN_MOTION": 13.87902562, "ECCENTRICITY": 0.00407948, "INCLINATION": 82.9493, "RA_OF_ASC_NODE": 185.9626, "ARG_OF_PERICENTER": 144.5067, "MEAN_ANOMALY": 215.8823, "EPHEMERIS_TYPE": 0, "CLASSIFICATION_TYPE": "U", "NORAD_CAT_ID": 28521, "ELEMENT_SET_NO": 999, "REV_AT_EPOCH": 5771, "BSTAR": 6.7585353e-05, "MEAN_MOTION_DOT": 9.7e-07, "MEAN_MOTION_DDOT": 0}, "tle": {"line1": "1 28521U 05002A   25345.01721027  .00000097  00000+0  67585-4 0  9994", "line2": "2 28521  82.9493 185.9626 0040794 144.5067 215.8823 13.87902562 57715"}}, "geometry": {"type": "Point", "coordinates": [167.25066582312672, -68.47421992718888]}}, {"type": "Feature", "properties": {"norad_id": 32052, "name": "COSMOS 2429", "group": "musson", "lat": 61.33770403601339, "lon": 151.13776344785933, "alt_km": 968.467531696424, "timestamp": "2025-12-11T13:55:02.434886+00:00", "meta": {"OBJECT_NAME": "COSMOS 2429", "OBJECT_ID": "2007-038A", "EPOCH": "2025-12-11T06:21:54.074880", "MEAN_MOTION": 13.75149189, "ECCENTRICITY": 0.00393133, "INCLINATION": 82.9803, "RA_OF_ASC_NODE": 344.3959, "ARG_OF_PERICENTER": 41.8792, "MEAN_ANOMALY": 318.536, "EPHEMERIS_TYPE": 0, "CLASSIFICATION_TYPE": "U", "NORAD_CAT_ID": 32052, "ELEMENT_SET_NO": 999, "REV_AT_EPOCH": 91582, "BSTAR": 8.1682485e-05, "MEAN_MOTION_DOT": 9.4e-07, "MEAN_MOTION_DDOT": 0}, "tle": {"line1": "1 32052U 07038A   25345.26520920  .00000094  00000+0  81682-4 0  9996", "line2": "2 32052  82.9803 344.3959 0039313  41.8792 318.5360 13.75149189915820"}}, "geometry": {"type": "Point", "coordinates": [151.13776344785933, 61.33770403601339]}}, {"type": "Feature", "properties": {"norad_id": 35635, "name": "COSMOS 2454", "group": "musson", "lat": -28.162483284226703, "lon": 165.72869120091585, "alt_km": 938.5281223015118, "timestamp": "2025-12-11T13:55:02.434896+00:00", "meta": {"OBJECT_NAME": "COSMOS 2454", "OBJECT_ID": "2009-039A", "EPOCH": "2025-12-11T06:14:35.647584", "MEAN_MOTION": 13.89928314, "ECCENTRICITY": 0.0020478, "INCLINATION": 82.9554, "RA_OF_ASC_NODE": 169.7667, "ARG_OF_PERICENTER": 77.7005, "MEAN_ANOMALY": 95.1833, "EPHEMERIS_TYPE": 0, "CLASSIFICATION_TYPE": "U", "NORAD_CAT_ID": 35635, "ELEMENT_SET_NO": 999, "REV_AT_EPOCH": 83129, "BSTAR": 7.3613666e-05, "MEAN_MOTION_DOT": 1.07e-06, "MEAN_MOTION_DDOT": 0}, "tle": {"line1": "1 35635U 09039A   25345.26013481  .00000107  00000+0  73614-4 0  9999", "line2": "2 35635  82.9554 169.7667 0020478  77.7005  95.1833 13.89928314831296"}}, "geometry": {"type": "Point", "coordinates": [165.72869120091585, -28.162483284226703]}}, {"type": "Feature", "properties": {"norad_id": 36519, "name": "COSMOS 2463", "group": "musson", "lat": 82.81101168820086, "lon": 105.93292543864499, "alt_km": 1009.8347506063201, "timestamp": "2025-12-11T13:55:02.434924+00:00", "meta": {"OBJECT_NAME": "COSMOS 2463", "OBJECT_ID": "2010-017A", "EPOCH": "2025-12-11T05:01:54.171264", "MEAN_MOTION": 13.71649038, "ECCENTRICITY": 0.00348212, "INCLINATION": 82.9614, "RA_OF_ASC_NODE": 27.8371, "ARG_OF_PERICENTER": 292.4602, "MEAN_ANOMALY": 128.7739, "EPHEMERIS_TYPE": 0, "CLASSIFICATION_TYPE": "U", "NORAD_CAT_ID": 36519, "ELEMENT_SET_NO": 999, "REV_AT_EPOCH": 78216, "BSTAR": 5.9274959e-05, "MEAN_MOTION_DOT": 6.8e-07, "MEAN_MOTION_DDOT": 0}, "tle": {"line1": "1 36519U 10017A   25345.20965476  .00000068  00000+0  59275-4 0  9996", "line2": "2 36519  82.9614  27.8371 0034821 292.4602 128.7739 13.71649038782160"}}, "geometry": {"type": "Point", "coordinates": [105.93292543864499, 82.81101168820086]}}]}